OBJECT_NAME,OBJECT_ID,EPOCH,MEAN_MOTION,ECCENTRICITY,INCLINATION,RA_OF_ASC_NODE,ARG_OF_PERICENTER,MEAN_ANOMALY,EPHEMERIS_TYPE,CLASSIFICATION_TYPE,NORAD_CAT_ID,ELEMENT_SET_NO,REV_AT_EPOCH,BSTAR,MEAN_MOTION_DOT,MEAN_MOTION_DDOT
SL-16 R/B,1994-077B,2026-07-14T09:31:32.555712,14.15574365,.00040961,70.9822,85.9190,304.0265,56.0469,0,U,23405,999,63416,-.37378674E-4,-.121E-5,0
ARIANE 40+ R/B,1995-021B,2026-07-14T10:11:26.048256,14.39847314,.0007886,98.4402,265.1046,118.4838,252.3086,0,U,23561,999,63748,.51818477E-4,.119E-5,0
SL-16 R/B,1995-058B,2026-07-14T14:55:40.095840,14.15508580,.00146101,71.0210,273.7590,283.5085,76.4410,0,U,23705,999,58581,.97513681E-4,.143E-5,0
SL-16 R/B,1996-051B,2026-07-14T13:55:20.449056,14.12456216,.00177567,70.7647,266.6788,298.8766,61.0571,0,U,24298,999,53956,.11038243E-3,.155E-5,0
ORBVIEW 2 (SEASTAR),1997-037A,2026-07-14T11:33:06.966432,14.35566571,.00031134,98.8713,3.2603,62.3841,297.7659,0,U,24883,999,52666,.49189663E-4,.95E-6,0
SL-16 R/B,1998-043G,2026-07-14T10:41:37.953024,14.26072630,.00100767,98.8379,149.8415,13.5978,346.5471,0,U,25400,999,45705,.17871795E-4,-.3E-7,0
SL-16 R/B,1998-045B,2026-07-14T13:41:43.193184,14.16205516,.00082109,71.0111,274.7420,207.5313,152.5376,0,U,25407,999,44506,-.84908543E-4,-.216E-5,0
ISS (ZARYA),1998-067A,2026-07-14T09:52:42.163104,15.49007257,.00067026,51.6306,165.3606,294.7447,65.2843,0,U,25544,999,57597,.80585034E-4,.3993E-4,0
CZ-4B R/B,1999-025C,2026-07-14T14:12:43.106976,14.18287644,.00366657,98.6472,236.7391,341.5071,136.5191,0,U,25732,999,40615,.30807444E-4,.21E-6,0
OKEAN-O,1999-039A,2026-07-14T14:02:21.529824,14.80496949,.00008997,97.9302,254.0663,85.8407,274.2908,0,U,25860,999,45316,.41359722E-4,.265E-5,0
SL-16 R/B,1999-039B,2026-07-14T13:57:07.052832,14.81870408,.00142664,97.9824,254.3643,200.4450,159.6193,0,U,25861,999,45565,.34181831E-4,.217E-5,0
DELTA 2 R/B,1999-041E,2026-07-14T06:49:52.750848,14.12082542,.05013648,51.7612,155.5352,2.0695,358.2160,0,U,25876,999,38091,.25316376E-3,.1336E-4,0
HELIOS 1B,1999-064A,2026-07-14T14:44:02.768352,14.88074369,.00019777,98.1586,101.5451,54.5445,305.5955,0,U,25977,999,70413,.78123792E-4,.66E-5,0
TERRA,1999-068A,2026-07-14T15:01:38.870112,14.61123443,.00033877,97.9442,244.0824,123.7802,352.1206,0,U,25994,999,41361,.47265479E-4,.188E-5,0
SL-16 R/B,2000-006B,2026-07-14T09:46:01.090848,14.15838156,.00171677,71.0002,191.3903,341.0591,18.9892,0,U,26070,999,36649,-.62755376E-4,-.171E-5,0
TITAN 4B R/B,2000-047B,2026-07-14T14:39:25.154784,15.10331362,.00458438,67.9873,43.3730,259.3226,100.2760,0,U,26474,999,41207,.80899922E-4,.1219E-4,0
ENVISAT,2002-009A,2026-07-14T10:40:42.200832,14.39070659,.0001341,98.3846,146.1575,83.6631,27.5571,0,U,27386,999,27740,.19928708E-4,.19E-6,0
IDEFIX & ARIANE 42P R/B,2002-021B,2026-07-14T12:53:16.691136,14.31093563,.0011847,98.5942,132.7244,168.3761,191.7697,0,U,27422,999,26216,.4819964E-4,.83E-6,0
AQUA,2002-022A,2026-07-14T12:07:11.762400,14.62196472,.0000927,98.4295,165.3370,111.8770,0.7592,0,U,27424,999,28726,.80863616E-4,.358E-5,0
CZ-4B R/B,2002-024C,2026-07-14T14:59:32.007264,14.14568211,.00504963,98.8687,248.2646,23.6018,92.8040,0,U,27432,999,24718,.28180794E-4,.1E-6,0
MIDORI II (ADEOS-II),2002-056A,2026-07-14T12:12:18.643104,14.29362828,.00015094,98.7894,155.0031,41.7148,318.4148,0,U,27597,999,22841,.53678044E-4,.91E-6,0
H-2A R/B,2002-056E,2026-07-14T12:25:16.314816,14.33833665,.00708504,98.3328,151.1980,142.9221,334.7995,0,U,27601,999,23228,.54628693E-4,.115E-5,0
CZ-4B R/B,2003-049C,2026-07-14T14:22:46.223904,14.55115849,.00476034,98.6909,195.5384,203.0872,156.8185,0,U,28059,999,20505,.42089293E-4,.133E-5,0
CZ-2C R/B,2004-012C,2026-07-14T11:41:43.395648,15.85054763,.00112422,97.7049,274.4510,192.5821,167.5170,0,U,28222,999,22421,.4573359E-3,.108426E-2,0
SL-16 R/B,2004-021B,2026-07-14T14:20:25.436832,14.14616399,.00063347,71.0028,326.1626,225.5818,134.4786,0,U,28353,999,14078,.19017295E-4,-.11E-6,0
CZ-4B R/B,2004-035C,2026-07-14T14:04:51.528000,15.30986720,.00291983,97.3357,228.3564,234.8721,124.9784,0,U,28415,999,19931,.13888868E-3,.4132E-4,0
CZ-2C R/B,2004-046B,2026-07-14T14:34:28.204032,14.27033003,.01400879,98.1917,102.6708,139.1237,222.0552,0,U,28480,999,12660,.36878182E-4,.6E-6,0
ARIANE 5 R/B,2004-049H,2026-07-14T11:28:27.008832,14.85478542,.00826716,98.2740,8.7894,300.6465,58.6618,0,U,28499,999,16461,.3421238E-4,.247E-5,0
CZ-2D R/B,2005-024B,2026-07-14T14:33:21.536928,15.72696978,.00022985,97.3471,216.4662,192.6193,167.5013,0,U,28738,999,15964,.33563142E-3,.45115E-3,0
ALOS (DAICHI),2006-002A,2026-07-14T12:29:31.470432,14.70101012,.00008253,98.1337,151.0057,98.3701,261.7599,0,U,28931,999,9211,.86973462E-4,.473E-5,0
