SL-16 R/B               
1 23405U 94077B   26195.39690458 -.00000121  00000+0 -37379-4 0  9996
2 23405  70.9822  85.9190 0004096 304.0265  56.0469 14.15574365634166
ARIANE 40+ R/B          
1 23561U 95021B   26195.42460704  .00000119  00000+0  51818-4 0  9991
2 23561  98.4402 265.1046 0007886 118.4838 252.3086 14.39847314637480
SL-16 R/B               
1 23705U 95058B   26195.62199185  .00000143  00000+0  97514-4 0  9995
2 23705  71.0210 273.7590 0014610 283.5085  76.4410 14.15508580585812
SL-16 R/B               
1 24298U 96051B   26195.58009779  .00000155  00000+0  11038-3 0  9990
2 24298  70.7647 266.6788 0017756 298.8766  61.0571 14.12456216539563
ORBVIEW 2 (SEASTAR)     
1 24883U 97037A   26195.48133063  .00000095  00000+0  49190-4 0  9992
2 24883  98.8713   3.2603 0003113  62.3841 297.7659 14.35566571526662
SL-16 R/B               
1 25400U 98043G   26195.44557816 -.00000003  00000+0  17872-4 0  9990
2 25400  98.8379 149.8415 0010076  13.5978 346.5471 14.26072630457058
SL-16 R/B               
1 25407U 98045B   26195.57063881 -.00000216  00000+0 -84909-4 0  9999
2 25407  71.0111 274.7420 0008210 207.5313 152.5376 14.16205516445068
ISS (ZARYA)             
1 25544U 98067A   26195.41159911  .00003993  00000+0  80585-4 0  9997
2 25544  51.6306 165.3606 0006702 294.7447  65.2843 15.49007257575973
CZ-4B R/B               
1 25732U 99025C   26195.59216559  .00000021  00000+0  30807-4 0  9993
2 25732  98.6472 236.7391 0036665 341.5071 136.5191 14.18287644406152
OKEAN-O                 
1 25860U 99039A   26195.58497141  .00000265  00000+0  41360-4 0  9993
2 25860  97.9302 254.0663 0000899  85.8407 274.2908 14.80496949453162
SL-16 R/B               
1 25861U 99039B   26195.58133163  .00000217  00000+0  34182-4 0  9996
2 25861  97.9824 254.3643 0014266 200.4450 159.6193 14.81870408455654
DELTA 2 R/B             
1 25876U 99041E   26195.28463832  .00001336  00000+0  25316-3 0  9992
2 25876  51.7612 155.5352 0501364   2.0695 358.2160 14.12082542380914
HELIOS 1B               
1 25977U 99064A   26195.61392093  .00000660  00000+0  78124-4 0  9991
2 25977  98.1586 101.5451 0001977  54.5445 305.5955 14.88074369704134
TERRA                   
1 25994U 99068A   26195.62614433  .00000188  00000+0  47265-4 0  9997
2 25994  97.9442 244.0824 0003387 123.7802 352.1206 14.61123443413617
SL-16 R/B               
1 26070U 00006B   26195.40695707 -.00000171  00000+0 -62755-4 0  9991
2 26070  71.0002 191.3903 0017167 341.0591  18.9892 14.15838156366495
TITAN 4B R/B            
1 26474U 00047B   26195.61070781  .00001219  00000+0  80900-4 0  9990
2 26474  67.9873  43.3730 0045843 259.3226 100.2760 15.10331362412073
ENVISAT                 
1 27386U 02009A   26195.44493288  .00000019  00000+0  19929-4 0  9995
2 27386  98.3846 146.1575 0001341  83.6631  27.5571 14.39070659277402
IDEFIX & ARIANE 42P R/B 
1 27422U 02021B   26195.53699874  .00000083  00000+0  48200-4 0  9994
2 27422  98.5942 132.7244 0011847 168.3761 191.7697 14.31093563262164
AQUA                    
1 27424U 02022A   26195.50499725  .00000358  00000+0  80864-4 0  9994
2 27424  98.4295 165.3370 0000927 111.8770   0.7592 14.62196472287266
CZ-4B R/B               
1 27432U 02024C   26195.62467601  .00000010  00000+0  28181-4 0  9995
2 27432  98.8687 248.2646 0050496  23.6018  92.8040 14.14568211247180
MIDORI II (ADEOS-II)    
1 27597U 02056A   26195.50854911  .00000091  00000+0  53678-4 0  9991
2 27597  98.7894 155.0031 0001509  41.7148 318.4148 14.29362828228413
H-2A R/B                
1 27601U 02056E   26195.51754994  .00000115  00000+0  54629-4 0  9992
2 27601  98.3328 151.1980 0070850 142.9221 334.7995 14.33833665232286
CZ-4B R/B               
1 28059U 03049C   26195.59914611  .00000133  00000+0  42089-4 0  9992
2 28059  98.6909 195.5384 0047603 203.0872 156.8185 14.55115849205053
CZ-2C R/B               
1 28222U 04012C   26195.48730782  .00108426  00000+0  45734-3 0  9991
2 28222  97.7049 274.4510 0011242 192.5821 167.5170 15.85054763224217
SL-16 R/B               
1 28353U 04021B   26195.59751663 -.00000011  00000+0  19017-4 0  9997
2 28353  71.0028 326.1626 0006334 225.5818 134.4786 14.14616399140781
CZ-4B R/B               
1 28415U 04035C   26195.58670750  .00004132  00000+0  13889-3 0  9994
2 28415  97.3357 228.3564 0029198 234.8721 124.9784 15.30986720199311
CZ-2C R/B               
1 28480U 04046B   26195.60727088  .00000060  00000+0  36878-4 0  9998
2 28480  98.1917 102.6708 0140087 139.1237 222.0552 14.27033003126605
ARIANE 5 R/B            
1 28499U 04049H   26195.47809038  .00000247  00000+0  34212-4 0  9999
2 28499  98.2740   8.7894 0082671 300.6465  58.6618 14.85478542164618
CZ-2D R/B               
1 28738U 05024B   26195.60649927  .00045115  00000+0  33563-3 0  9993
2 28738  97.3471 216.4662 0002298 192.6193 167.5013 15.72696978159648
ALOS (DAICHI)           
1 28931U 06002A   26195.52050313  .00000473  00000+0  86973-4 0  9993
2 28931  98.1337 151.0057 0000825  98.3701 261.7599 14.70101012 92117
